start=new Date('2022-02-18T00:00:00.000Z').valueOf();
sats=[{"MEAN_MOTION_DOT":"0.00003782","BSTAR":"0.00027256000000","ARG_OF_PERICENTER":"74.3522","OBJECT_ID":"2020-025AR","LAUNCH_DATE":"2020-04-22","TLE_LINE1":"1 45570U 20025AR  22048.89173907  .00003782  00000-0  27256-3 0  9995","MEAN_MOTION":"15.06413963","GP_ID":"196242653","APOAPSIS":"548.324","INCLINATION":"53.0521","NORAD_CAT_ID":"45570","CLASSIFICATION_TYPE":"U","MEAN_ANOMALY":"285.7651","OBJECT_NAME":"STARLINK-1376","EPOCH":"2022-02-17T21:24:06.255648","PERIAPSIS":"546.018","SEMIMAJOR_AXIS":"6925.306","MEAN_ELEMENT_THEORY":"SGP4","PERIOD":"95.591","EPHEMERIS_TYPE":"0","RCS_SIZE":"LARGE","SITE":"AFETR","CENTER_NAME":"EARTH","COUNTRY_CODE":"US","REF_FRAME":"TEME","ECCENTRICITY":"0.00016650","TIME_SYSTEM":"UTC","ELEMENT_SET_NO":"999","FILE":"3305402","RA_OF_ASC_NODE":"254.1764","MEAN_MOTION_DDOT":"0.0000000000000","REV_AT_EPOCH":"10217","TLE_LINE2":"2 45570  53.0521 254.1764 0001665  74.3522 285.7651 15.06413963102172","DECAY_DATE":null,"OBJECT_TYPE":"PAYLOAD"},{"OBJECT_TYPE":"PAYLOAD","DECAY_DATE":null,"TLE_LINE2":"2 45571  53.0542 244.4190 0001618  71.2256 288.8909 15.06392572102328","REV_AT_EPOCH":"10232","RA_OF_ASC_NODE":"244.4190","MEAN_MOTION_DDOT":"0.0000000000000","FILE":"3305402","ELEMENT_SET_NO":"999","TIME_SYSTEM":"UTC","ECCENTRICITY":"0.00016180","REF_FRAME":"TEME","COUNTRY_CODE":"US","CENTER_NAME":"EARTH","EPHEMERIS_TYPE":"0","RCS_SIZE":"LARGE","PERIOD":"95.593","SITE":"AFETR","SEMIMAJOR_AXIS":"6925.371","MEAN_ELEMENT_THEORY":"SGP4","OBJECT_NAME":"STARLINK-1261","PERIAPSIS":"546.116","EPOCH":"2022-02-17T20:11:07.812960","NORAD_CAT_ID":"45571","MEAN_ANOMALY":"288.8909","CLASSIFICATION_TYPE":"U","GP_ID":"196240901","APOAPSIS":"548.357","INCLINATION":"53.0542","MEAN_MOTION":"15.06392572","TLE_LINE1":"1 45571U 20025AS  22048.84106265 -.00000512  00000-0 -15498-4 0  9990","LAUNCH_DATE":"2020-04-22","OBJECT_ID":"2020-025AS","BSTAR":"-0.00001549800000","ARG_OF_PERICENTER":"71.2256","MEAN_MOTION_DOT":"-0.00000512"},{"SEMIMAJOR_AXIS":"6925.377","MEAN_ELEMENT_THEORY":"SGP4","SITE":"AFETR","RCS_SIZE":"LARGE","EPHEMERIS_TYPE":"0","PERIOD":"95.593","MEAN_ANOMALY":"271.4842","CLASSIFICATION_TYPE":"U","NORAD_CAT_ID":"45572","PERIAPSIS":"546.177","EPOCH":"2022-02-17T20:00:31.181472","OBJECT_NAME":"STARLINK-1320","TLE_LINE1":"1 45572U 20025AT  22048.83369423  .00000146  00000-0  28693-4 0  9999","MEAN_MOTION":"15.06390821","LAUNCH_DATE":"2020-04-22","APOAPSIS":"548.307","INCLINATION":"53.0542","GP_ID":"196241652","MEAN_MOTION_DOT":"0.00000146","OBJECT_ID":"2020-025AT","BSTAR":"0.00002869300000","ARG_OF_PERICENTER":"88.6323","DECAY_DATE":null,"TLE_LINE2":"2 45572  53.0542 244.4531 0001538  88.6323 271.4842 15.06390821102314","REV_AT_EPOCH":"10231","OBJECT_TYPE":"PAYLOAD","MEAN_MOTION_DDOT":"0.0000000000000","RA_OF_ASC_NODE":"244.4531","TIME_SYSTEM":"UTC","FILE":"3305402","ELEMENT_SET_NO":"999","COUNTRY_CODE":"US","CENTER_NAME":"EARTH","ECCENTRICITY":"0.00015380","REF_FRAME":"TEME"},{"TLE_LINE2":"2 45573  53.0541 244.2449 0001495  63.5388 296.5754 15.06391483102017","REV_AT_EPOCH":"10201","DECAY_DATE":null,"OBJECT_TYPE":"PAYLOAD","MEAN_MOTION_DDOT":"0.0000000000000","RA_OF_ASC_NODE":"244.2449","TIME_SYSTEM":"UTC","ELEMENT_SET_NO":"999","FILE":"3305402","CENTER_NAME":"EARTH","COUNTRY_CODE":"US","REF_FRAME":"TEME","ECCENTRICITY":"0.00014950","SEMIMAJOR_AXIS":"6925.375","MEAN_ELEMENT_THEORY":"SGP4","SITE":"AFETR","PERIOD":"95.593","EPHEMERIS_TYPE":"0","RCS_SIZE":"LARGE","CLASSIFICATION_TYPE":"U","MEAN_ANOMALY":"296.5754","NORAD_CAT_ID":"45573","EPOCH":"2022-02-17T21:04:12.642240","PERIAPSIS":"546.204","OBJECT_NAME":"STARLINK-1321","LAUNCH_DATE":"2020-04-22","TLE_LINE1":"1 45573U 20025AU  22048.87792410 -.00000347  00000-0 -44040-5 0  9990","MEAN_MOTION":"15.06391483","APOAPSIS":"548.275","INCLINATION":"53.0541","GP_ID":"196241903","MEAN_MOTION_DOT":"-0.00000347","BSTAR":"-0.00000440400000","ARG_OF_PERICENTER":"63.5388","OBJECT_ID":"2020-025AU"},{"SEMIMAJOR_AXIS":"6925.352","MEAN_ELEMENT_THEORY":"SGP4","EPHEMERIS_TYPE":"0","RCS_SIZE":"LARGE","PERIOD":"95.592","SITE":"AFETR","NORAD_CAT_ID":"45574","MEAN_ANOMALY":"290.4007","CLASSIFICATION_TYPE":"U","OBJECT_NAME":"STARLINK-1324","PERIAPSIS":"545.906","EPOCH":"2022-02-17T20:05:48.843168","TLE_LINE1":"1 45574U 20025AV  22048.83737087  .00000145  00000-0  28639-4 0  9995","MEAN_MOTION":"15.06398795","LAUNCH_DATE":"2020-04-22","GP_ID":"196242153","APOAPSIS":"548.528","INCLINATION":"53.0545","MEAN_MOTION_DOT":"0.00000145","ARG_OF_PERICENTER":"69.7186","OBJECT_ID":"2020-025AV","BSTAR":"0.00002863900000","TLE_LINE2":"2 45574  53.0545 244.4333 0001893  69.7186 290.4007 15.06398795102323","DECAY_DATE":null,"REV_AT_EPOCH":"10232","OBJECT_TYPE":"PAYLOAD","RA_OF_ASC_NODE":"244.4333","MEAN_MOTION_DDOT":"0.0000000000000","TIME_SYSTEM":"UTC","ELEMENT_SET_NO":"999","FILE":"3305402","COUNTRY_CODE":"US","CENTER_NAME":"EARTH","ECCENTRICITY":"0.00018930","REF_FRAME":"TEME"},{"RA_OF_ASC_NODE":"238.4496","MEAN_MOTION_DDOT":"0.0000000000000","TLE_LINE2":"2 45575  52.9986 238.4496 0001575 118.9559 241.1589 15.10105000102375","DECAY_DATE":null,"REV_AT_EPOCH":"10237","OBJECT_TYPE":"PAYLOAD","COUNTRY_CODE":"US","CENTER_NAME":"EARTH","ECCENTRICITY":"0.00015750","REF_FRAME":"TEME","TIME_SYSTEM":"UTC","ELEMENT_SET_NO":"999","FILE":"3305402","NORAD_CAT_ID":"45575","MEAN_ANOMALY":"241.1589","CLASSIFICATION_TYPE":"U","OBJECT_NAME":"STARLINK-1326","EPOCH":"2022-02-17T19:03:49.687776","PERIAPSIS":"534.793","SEMIMAJOR_AXIS":"6914.016","MEAN_ELEMENT_THEORY":"SGP4","RCS_SIZE":"LARGE","EPHEMERIS_TYPE":"0","PERIOD":"95.358","SITE":"AFETR","MEAN_MOTION_DOT":"0.00010829","ARG_OF_PERICENTER":"118.9559","OBJECT_ID":"2020-025AW","BSTAR":"0.00067379000000","TLE_LINE1":"1 45575U 20025AW  22048.79432509  .00010829  00000-0  67379-3 0  9995","MEAN_MOTION":"15.10105000","LAUNCH_DATE":"2020-04-22","GP_ID":"196241402","INCLINATION":"52.9986","APOAPSIS":"536.970"},{"TIME_SYSTEM":"UTC","ELEMENT_SET_NO":"999","FILE":"3305402","CENTER_NAME":"EARTH","COUNTRY_CODE":"US","REF_FRAME":"TEME","ECCENTRICITY":"0.00016970","REV_AT_EPOCH":"10232","TLE_LINE2":"2 45576  53.0533 244.3010 0001697  65.5973 294.5193 15.06391389102326","DECAY_DATE":null,"OBJECT_TYPE":"PAYLOAD","MEAN_MOTION_DDOT":"0.0000000000000","RA_OF_ASC_NODE":"244.3010","LAUNCH_DATE":"2020-04-22","MEAN_MOTION":"15.06391389","TLE_LINE1":"1 45576U 20025AX  22048.86318232  .00001493  00000-0  11916-3 0  9993","INCLINATION":"53.0533","APOAPSIS":"548.415","GP_ID":"196241152","MEAN_MOTION_DOT":"0.00001493","ARG_OF_PERICENTER":"65.5973","BSTAR":"0.00011916000000","OBJECT_ID":"2020-025AX","MEAN_ELEMENT_THEORY":"SGP4","SEMIMAJOR_AXIS":"6925.375","SITE":"AFETR","PERIOD":"95.593","EPHEMERIS_TYPE":"0","RCS_SIZE":"LARGE","CLASSIFICATION_TYPE":"U","MEAN_ANOMALY":"294.5193","NORAD_CAT_ID":"45576","EPOCH":"2022-02-17T20:42:58.952448","PERIAPSIS":"546.065","OBJECT_NAME":"STARLINK-1328"},{"MEAN_MOTION_DDOT":"0.0000000000000","RA_OF_ASC_NODE":"244.2019","TLE_LINE2":"2 45577  53.0527 244.2019 0001581  64.6080 295.5072 15.06396825102315","REV_AT_EPOCH":"10231","DECAY_DATE":null,"OBJECT_TYPE":"PAYLOAD","CENTER_NAME":"EARTH","COUNTRY_CODE":"US","REF_FRAME":"TEME","ECCENTRICITY":"0.00015810","TIME_SYSTEM":"UTC","ELEMENT_SET_NO":"999","FILE":"3305402","CLASSIFICATION_TYPE":"U","MEAN_ANOMALY":"295.5072","NORAD_CAT_ID":"45577","PERIAPSIS":"546.128","EPOCH":"2022-02-17T21:14:49.092288","OBJECT_NAME":"STARLINK-1330","MEAN_ELEMENT_THEORY":"SGP4","SEMIMAJOR_AXIS":"6925.358","SITE":"AFETR","PERIOD":"95.592","RCS_SIZE":"LARGE","EPHEMERIS_TYPE":"0","MEAN_MOTION_DOT":"-0.00000315","BSTAR":"-0.00000225590000","ARG_OF_PERICENTER":"64.6080","OBJECT_ID":"2020-025AY","LAUNCH_DATE":"2020-04-22","TLE_LINE1":"1 45577U 20025AY  22048.88529042 -.00000315  00000-0 -22559-5 0  9990","MEAN_MOTION":"15.06396825","APOAPSIS":"548.318","INCLINATION":"53.0527","GP_ID":"196242404"},{"LAUNCH_DATE":"2020-04-22","TLE_LINE1":"1 45578U 20025AZ  22048.85581346  .00002362  00000-0  17741-3 0  9990","MEAN_MOTION":"15.06404521","APOAPSIS":"548.433","INCLINATION":"53.0514","GP_ID":"196242654","MEAN_MOTION_DOT":"0.00002362","OBJECT_ID":"2020-025AZ","ARG_OF_PERICENTER":"72.2769","BSTAR":"0.00017741000000","SEMIMAJOR_AXIS":"6925.335","MEAN_ELEMENT_THEORY":"SGP4","SITE":"AFETR","PERIOD":"95.592","RCS_SIZE":"LARGE","EPHEMERIS_TYPE":"0","CLASSIFICATION_TYPE":"U","MEAN_ANOMALY":"287.8414","NORAD_CAT_ID":"45578","EPOCH":"2022-02-17T20:32:22.282944","PERIAPSIS":"545.966","OBJECT_NAME":"STARLINK-1331","TIME_SYSTEM":"UTC","FILE":"3305402","ELEMENT_SET_NO":"999","CENTER_NAME":"EARTH","COUNTRY_CODE":"US","REF_FRAME":"TEME","ECCENTRICITY":"0.00017810","TLE_LINE2":"2 45578  53.0514 244.3491 0001781  72.2769 287.8414 15.06404521102326","REV_AT_EPOCH":"10232","DECAY_DATE":null,"OBJECT_TYPE":"PAYLOAD","MEAN_MOTION_DDOT":"0.0000000000000","RA_OF_ASC_NODE":"244.3491"},{"OBJECT_NAME":"STARLINK-1332","EPOCH":"2022-02-17T20:20:22.121664","PERIAPSIS":"546.293","NORAD_CAT_ID":"45579","CLASSIFICATION_TYPE":"U","MEAN_ANOMALY":"242.6053","PERIOD":"95.592","RCS_SIZE":"LARGE","EPHEMERIS_TYPE":"0","SITE":"AFETR","MEAN_ELEMENT_THEORY":"SGP4","SEMIMAJOR_AXIS":"6925.363","OBJECT_ID":"2020-025BA","BSTAR":"0.00003094000000","ARG_OF_PERICENTER":"117.5074","MEAN_MOTION_DOT":"0.00000179","GP_ID":"196240902","INCLINATION":"53.0536","APOAPSIS":"548.162","LAUNCH_DATE":"2020-04-22","TLE_LINE1":"1 45579U 20025BA  22048.84747826  .00000179  00000-0  30940-4 0  9998","MEAN_MOTION":"15.06395437","RA_OF_ASC_NODE":"204.3698","MEAN_MOTION_DDOT":"0.0000000000000","OBJECT_TYPE":"PAYLOAD","TLE_LINE2":"2 45579  53.0536 204.3698 0001349 117.5074 242.6053 15.06395437102871","REV_AT_EPOCH":"10287","DECAY_DATE":null,"REF_FRAME":"TEME","ECCENTRICITY":"0.00013490","CENTER_NAME":"EARTH","COUNTRY_CODE":"US","ELEMENT_SET_NO":"999","FILE":"3305402","TIME_SYSTEM":"UTC"}];
